{
  "norad_id": 39012,
  "name": "YAOGAN-16 01B",
  "history": [
    {
      "epoch": "2026-03-28T13:06:19.647936",
      "apogee_km": 1409.3863990723967,
      "perigee_km": 768.3084512501737,
      "latitude_deg": 62.487863502947164,
      "longitude_deg": -66.37816895986907,
      "semi_major_axis_km": 7466.984425161285,
      "eccentricity": 0.0429275,
      "inclination_deg": 63.3535,
      "raan_deg": 138.2916,
      "arg_perigee_deg": 26.1884,
      "mean_anomaly_deg": 336.0175,
      "mean_motion_rev_day": 13.45503692
    },
    {
      "epoch": "2026-03-29T05:09:31.998816",
      "apogee_km": 1409.4224972590027,
      "perigee_km": 768.2714133342497,
      "latitude_deg": -8.073845659435149,
      "longitude_deg": -2.1644457599613816,
      "semi_major_axis_km": 7466.983955296626,
      "eccentricity": 0.0429324,
      "inclination_deg": 63.3534,
      "raan_deg": 136.5642,
      "arg_perigee_deg": 26.1937,
      "mean_anomaly_deg": 336.0129,
      "mean_motion_rev_day": 13.45503819
    }
  ]
}